[{"OBJECT_NAME":"ONEWEB-0463","OBJECT_ID":"2022-012AE","EPOCH":"2026-03-02T21:35:51.795456","MEAN_MOTION":13.17648711,"ECCENTRICITY":0.00020038,"INCLINATION":87.914,"RA_OF_ASC_NODE":26.988,"ARG_OF_PERICENTER":81.0589,"MEAN_ANOMALY":279.0769,"EPHEMERIS_TYPE":0,"CLASSIFICATION_TYPE":"U","NORAD_CAT_ID":51650,"ELEMENT_SET_NO":999,"REV_AT_EPOCH":19967,"BSTAR":-2.708918e-6,"MEAN_MOTION_DOT":1.2e-7,"MEAN_MOTION_DDOT":0},{"OBJECT_NAME":"ONEWEB-0464","OBJECT_ID":"2022-012AF","EPOCH":"2026-03-02T21:30:15.219072","MEAN_MOTION":13.10373312,"ECCENTRICITY":0.00017537,"INCLINATION":87.876,"RA_OF_ASC_NODE":57.4493,"ARG_OF_PERICENTER":95.079,"MEAN_ANOMALY":265.0537,"EPHEMERIS_TYPE":0,"CLASSIFICATION_TYPE":"U","NORAD_CAT_ID":51651,"ELEMENT_SET_NO":999,"REV_AT_EPOCH":19540,"BSTAR":0.0017588708,"MEAN_MOTION_DOT":6.27e-6,"MEAN_MOTION_DDOT":0},{"OBJECT_NAME":"ONEWEB-0468","OBJECT_ID":"2022-012AG","EPOCH":"2026-03-02T21:39:48.213504","MEAN_MOTION":13.10370449,"ECCENTRICITY":0.00016572,"INCLINATION":87.876,"RA_OF_ASC_NODE":57.4422,"ARG_OF_PERICENTER":96.7584,"MEAN_ANOMALY":263.3732,"EPHEMERIS_TYPE":0,"CLASSIFICATION_TYPE":"U","NORAD_CAT_ID":51652,"ELEMENT_SET_NO":999,"REV_AT_EPOCH":19538,"BSTAR":0.0014666743,"MEAN_MOTION_DOT":5.25e-6,"MEAN_MOTION_DDOT":0},{"OBJECT_NAME":"ONEWEB-0473","OBJECT_ID":"2022-012AH","EPOCH":"2026-03-02T23:08:14.963712","MEAN_MOTION":13.10375618,"ECCENTRICITY":0.00017116,"INCLINATION":87.8764,"RA_OF_ASC_NODE":57.4315,"ARG_OF_PERICENTER":86.8812,"MEAN_ANOMALY":273.2511,"EPHEMERIS_TYPE":0,"CLASSIFICATION_TYPE":"U","NORAD_CAT_ID":51653,"ELEMENT_SET_NO":999,"REV_AT_EPOCH":19539,"BSTAR":0.0014957128,"MEAN_MOTION_DOT":5.35e-6,"MEAN_MOTION_DDOT":0},{"OBJECT_NAME":"ONEWEB-0474","OBJECT_ID":"2022-012AJ","EPOCH":"2026-03-02T22:56:17.656224","MEAN_MOTION":13.10376221,"ECCENTRICITY":0.0001685,"INCLINATION":87.8774,"RA_OF_ASC_NODE":57.4077,"ARG_OF_PERICENTER":95.1399,"MEAN_ANOMALY":264.992,"EPHEMERIS_TYPE":0,"CLASSIFICATION_TYPE":"U","NORAD_CAT_ID":51654,"ELEMENT_SET_NO":999,"REV_AT_EPOCH":19538,"BSTAR":0.00044062716,"MEAN_MOTION_DOT":1.66e-6,"MEAN_MOTION_DDOT":0},{"OBJECT_NAME":"ONEWEB-0475","OBJECT_ID":"2022-012AK","EPOCH":"2026-03-02T21:52:52.168224","MEAN_MOTION":13.17648573,"ECCENTRICITY":0.00012436,"INCLINATION":87.9139,"RA_OF_ASC_NODE":26.9773,"ARG_OF_PERICENTER":92.8999,"MEAN_ANOMALY":267.2275,"EPHEMERIS_TYPE":0,"CLASSIFICATION_TYPE":"U","NORAD_CAT_ID":51655,"ELEMENT_SET_NO":999,"REV_AT_EPOCH":19969,"BSTAR":-2.723399e-6,"MEAN_MOTION_DOT":1.2e-7,"MEAN_MOTION_DDOT":0},{"OBJECT_NAME":"ONEWEB-0490","OBJECT_ID":"2022-138A","EPOCH":"2026-03-02T18:19:36.837120","MEAN_MOTION":13.19725435,"ECCENTRICITY":0.00017042,"INCLINATION":87.9246,"RA_OF_ASC_NODE":326.1624,"ARG_OF_PERICENTER":86.152,"MEAN_ANOMALY":273.9808,"EPHEMERIS_TYPE":0,"CLASSIFICATION_TYPE":"U","NORAD_CAT_ID":54113,"ELEMENT_SET_NO":999,"REV_AT_EPOCH":16279,"BSTAR":0.00016090677,"MEAN_MOTION_DOT":7.7e-7,"MEAN_MOTION_DDOT":0},{"OBJECT_NAME":"ONEWEB-0492","OBJECT_ID":"2022-138B","EPOCH":"2026-03-02T18:56:00.326688","MEAN_MOTION":13.19725959,"ECCENTRICITY":0.00018381,"INCLINATION":87.924,"RA_OF_ASC_NODE":326.1659,"ARG_OF_PERICENTER":85.3088,"MEAN_ANOMALY":274.8255,"EPHEMERIS_TYPE":0,"CLASSIFICATION_TYPE":"U","NORAD_CAT_ID":54114,"ELEMENT_SET_NO":999,"REV_AT_EPOCH":16280,"BSTAR":-1.4124004e-5,"MEAN_MOTION_DOT":7.0e-8,"MEAN_MOTION_DDOT":0},{"OBJECT_NAME":"ONEWEB-0495","OBJECT_ID":"2022-138C","EPOCH":"2026-03-02T18:24:09.413568","MEAN_MOTION":13.19726739,"ECCENTRICITY":0.00016337,"INCLINATION":87.9238,"RA_OF_ASC_NODE":326.1717,"ARG_OF_PERICENTER":104.7188,"MEAN_ANOMALY":255.4126,"EPHEMERIS_TYPE":0,"CLASSIFICATION_TYPE":"U","NORAD_CAT_ID":54115,"ELEMENT_SET_NO":999,"REV_AT_EPOCH":16278,"BSTAR":0.00013773707,"MEAN_MOTION_DOT":6.8e-7,"MEAN_MOTION_DDOT":0},{"OBJECT_NAME":"ONEWEB-0497","OBJECT_ID":"2022-138D","EPOCH":"2026-03-02T18:42:21.302208","MEAN_MOTION":13.19725385,"ECCENTRICITY":0.0001724,"INCLINATION":87.9241,"RA_OF_ASC_NODE":326.1598,"ARG_OF_PERICENTER":82.668,"MEAN_ANOMALY":277.4649,"EPHEMERIS_TYPE":0,"CLASSIFICATION_TYPE":"U","NORAD_CAT_ID":54116,"ELEMENT_SET_NO":999,"REV_AT_EPOCH":16277,"BSTAR":-5.4224372e-5,"MEAN_MOTION_DOT":-9.0e-8,"MEAN_MOTION_DDOT":0},{"OBJECT_NAME":"ONEWEB-0499","OBJECT_ID":"2022-138E","EPOCH":"2026-03-02T18:18:28.404864","MEAN_MOTION":13.197251,"ECCENTRICITY":0.00015202,"INCLINATION":87.9239,"RA_OF_ASC_NODE":326.1733,"ARG_OF_PERICENTER":81.754,"MEAN_ANOMALY":278.3765,"EPHEMERIS_TYPE":0,"CLASSIFICATION_TYPE":"U","NORAD_CAT_ID":54117,"ELEMENT_SET_NO":999,"REV_AT_EPOCH":16278,"BSTAR":0.00026528577,"MEAN_MOTION_DOT":1.19e-6,"MEAN_MOTION_DDOT":0},{"OBJECT_NAME":"ONEWEB-0500","OBJECT_ID":"2022-138F","EPOCH":"2026-03-02T18:21:53.003520","MEAN_MOTION":13.19726416,"ECCENTRICITY":0.00018269,"INCLINATION":87.924,"RA_OF_ASC_NODE":326.1621,"ARG_OF_PERICENTER":79.897,"MEAN_ANOMALY":280.2369,"EPHEMERIS_TYPE":0,"CLASSIFICATION_TYPE":"U","NORAD_CAT_ID":54118,"ELEMENT_SET_NO":999,"REV_AT_EPOCH":16279,"BSTAR":0.00013854198,"MEAN_MOTION_DOT":6.8e-7,"MEAN_MOTION_DDOT":0},{"OBJECT_NAME":"ONEWEB-0501","OBJECT_ID":"2022-138G","EPOCH":"2026-03-02T19:05:06.727200","MEAN_MOTION":13.1972518,"ECCENTRICITY":0.00015533,"INCLINATION":87.9241,"RA_OF_ASC_NODE":326.1573,"ARG_OF_PERICENTER":91.0954,"MEAN_ANOMALY":269.0357,"EPHEMERIS_TYPE":0,"CLASSIFICATION_TYPE":"U","NORAD_CAT_ID":54119,"ELEMENT_SET_NO":999,"REV_AT_EPOCH":16277,"BSTAR":-0.00014104297,"MEAN_MOTION_DOT":-4.4e-7,"MEAN_MOTION_DDOT":0},{"OBJECT_NAME":"ONEWEB-0502","OBJECT_ID":"2022-138H","EPOCH":"2026-03-02T18:44:37.845312","MEAN_MOTION":13.19725408,"ECCENTRICITY":0.00015393,"INCLINATION":87.9248,"RA_OF_ASC_NODE":326.1442,"ARG_OF_PERICENTER":85.0333,"MEAN_ANOMALY":275.0976,"EPHEMERIS_TYPE":0,"CLASSIFICATION_TYPE":"U","NORAD_CAT_ID":54120,"ELEMENT_SET_NO":999,"REV_AT_EPOCH":16279,"BSTAR":-6.9469587e-5,"MEAN_MOTION_DOT":-1.5e-7,"MEAN_MOTION_DDOT":0},{"OBJECT_NAME":"ONEWEB-0503","OBJECT_ID":"2022-138J","EPOCH":"2026-03-02T18:28:42.574944","MEAN_MOTION":13.19725664,"ECCENTRICITY":0.00015368,"INCLINATION":87.9247,"RA_OF_ASC_NODE":326.1503,"ARG_OF_PERICENTER":73.0328,"MEAN_ANOMALY":287.0973,"EPHEMERIS_TYPE":0,"CLASSIFICATION_TYPE":"U","NORAD_CAT_ID":54121,"ELEMENT_SET_NO":999,"REV_AT_EPOCH":16278,"BSTAR":0.00021502339,"MEAN_MOTION_DOT":9.9e-7,"MEAN_MOTION_DDOT":0},{"OBJECT_NAME":"ONEWEB-0504","OBJECT_ID":"2022-138K","EPOCH":"2026-03-02T18:10:31.336896","MEAN_MOTION":13.19725818,"ECCENTRICITY":0.00015049,"INCLINATION":87.9241,"RA_OF_ASC_NODE":326.1636,"ARG_OF_PERICENTER":84.1521,"MEAN_ANOMALY":275.9783,"EPHEMERIS_TYPE":0,"CLASSIFICATION_TYPE":"U","NORAD_CAT_ID":54122,"ELEMENT_SET_NO":999,"REV_AT_EPOCH":16279,"BSTAR":0.00021811431,"MEAN_MOTION_DOT":1.0e-6,"MEAN_MOTION_DDOT":0},{"OBJECT_NAME":"ONEWEB-0505","OBJECT_ID":"2022-138L","EPOCH":"2026-03-02T18:05:58.051968","MEAN_MOTION":13.19725192,"ECCENTRICITY":0.00014509,"INCLINATION":87.925,"RA_OF_ASC_NODE":326.1602,"ARG_OF_PERICENTER":95.8661,"MEAN_ANOMALY":264.2637,"EPHEMERIS_TYPE":0,"CLASSIFICATION_TYPE":"U","NORAD_CAT_ID":54123,"ELEMENT_SET_NO":999,"REV_AT_EPOCH":16277,"BSTAR":0.00022887148,"MEAN_MOTION_DOT":1.05e-6,"MEAN_MOTION_DDOT":0}]
