ONEWEB-0463             
1 51650U 22012AE  26061.89990504  .00000012  00000+0 -27089-5 0  9997
2 51650  87.9140  26.9880 0002003  81.0589 279.0769 13.17648711199678
ONEWEB-0464             
1 51651U 22012AF  26061.89600948  .00000627  00000+0  17589-2 0  9990
2 51651  87.8760  57.4493 0001753  95.0790 265.0537 13.10373312195405
ONEWEB-0468             
1 51652U 22012AG  26061.90264136  .00000525  00000+0  14667-2 0  9999
2 51652  87.8760  57.4422 0001657  96.7584 263.3732 13.10370449195383
ONEWEB-0473             
1 51653U 22012AH  26061.96406208  .00000535  00000+0  14957-2 0  9997
2 51653  87.8764  57.4315 0001711  86.8812 273.2511 13.10375618195393
ONEWEB-0474             
1 51654U 22012AJ  26061.95575991  .00000166  00000+0  44063-3 0  9995
2 51654  87.8774  57.4077 0001685  95.1399 264.9920 13.10376221195384
ONEWEB-0475             
1 51655U 22012AK  26061.91171491  .00000012  00000+0 -27234-5 0  9993
2 51655  87.9139  26.9773 0001243  92.8999 267.2275 13.17648573199691
ONEWEB-0490             
1 54113U 22138A   26061.76362080  .00000077  00000+0  16091-3 0  9990
2 54113  87.9246 326.1624 0001704  86.1520 273.9808 13.19725435162792
ONEWEB-0492             
1 54114U 22138B   26061.78889267  .00000007  00000+0 -14124-4 0  9994
2 54114  87.9240 326.1659 0001838  85.3088 274.8255 13.19725959162802
ONEWEB-0495             
1 54115U 22138C   26061.76677562  .00000068  00000+0  13774-3 0  9991
2 54115  87.9238 326.1717 0001633 104.7188 255.4126 13.19726739162781
ONEWEB-0497             
1 54116U 22138D   26061.77941322 -.00000009  00000+0 -54224-4 0  9994
2 54116  87.9241 326.1598 0001724  82.6680 277.4649 13.19725385162774
ONEWEB-0499             
1 54117U 22138E   26061.76282876  .00000119  00000+0  26529-3 0  9992
2 54117  87.9239 326.1733 0001520  81.7540 278.3765 13.19725100162787
ONEWEB-0500             
1 54118U 22138F   26061.76519680  .00000068  00000+0  13854-3 0  9999
2 54118  87.9240 326.1621 0001826  79.8970 280.2369 13.19726416162794
ONEWEB-0501             
1 54119U 22138G   26061.79521675 -.00000044  00000+0 -14104-3 0  9995
2 54119  87.9241 326.1573 0001553  91.0954 269.0357 13.19725180162774
ONEWEB-0502             
1 54120U 22138H   26061.78099358 -.00000015  00000+0 -69470-4 0  9999
2 54120  87.9248 326.1442 0001539  85.0333 275.0976 13.19725408162795
ONEWEB-0503             
1 54121U 22138J   26061.76993721  .00000099  00000+0  21502-3 0  9998
2 54121  87.9247 326.1503 0001536  73.0328 287.0973 13.19725664162784
ONEWEB-0504             
1 54122U 22138K   26061.75730714  .00000100  00000+0  21811-3 0  9995
2 54122  87.9241 326.1636 0001504  84.1521 275.9783 13.19725818162796
ONEWEB-0505             
1 54123U 22138L   26061.75414412  .00000105  00000+0  22887-3 0  9999
2 54123  87.9250 326.1602 0001450  95.8661 264.2637 13.19725192162776
